{
  "type": "FeatureCollection",
  "features": [
    {
      "type": "Feature",
      "properties": {
        "norad_id": 39773,
        "name": "EUTELSAT 3B",
        "group": "eutelsat",
        "lat": -0.08067779197018678,
        "lon": -101.04012712049418,
        "alt_km": 35769.492983365286,
        "timestamp": "2025-12-14T11:29:49.728105+00:00",
        "meta_object_name": "EUTELSAT 3B",
        "meta_object_id": "2014-030A",
        "meta_epoch": "2025-12-13T15:10:33.342240",
        "meta_mean_motion": 1.00270909,
        "meta_eccentricity": 0.00045163,
        "meta_inclination": 0.0608,
        "meta_ra_of_asc_node": 351.0873,
        "meta_arg_of_pericenter": 239.2444,
        "meta_mean_anomaly": 82.9625,
        "meta_ephemeris_type": 0,
        "meta_classification_type": "U",
        "meta_norad_cat_id": 39773,
        "meta_element_set_no": 999,
        "meta_rev_at_epoch": 4220,
        "meta_bstar": 0,
        "meta_mean_motion_dot": 3.5e-07,
        "meta_mean_motion_ddot": 0,
        "tle_line1": "1 39773U 14030A   25347.63233035  .00000035  00000+0  00000+0 0  9999",
        "tle_line2": "2 39773   0.0608 351.0873 0004516 239.2444  82.9625  1.00270909 42204"
      },
      "geometry": {
        "type": "Point",
        "coordinates": [
          -101.04012712049418,
          -0.08067779197018678
        ]
      }
    },
    {
      "type": "Feature",
      "properties": {
        "norad_id": 40425,
        "name": "EUTELSAT 115 WEST B",
        "group": "eutelsat",
        "lat": -1.4977195840435283e-05,
        "lon": 140.96552721394158,
        "alt_km": 35785.15833495069,
        "timestamp": "2025-12-14T11:29:49.728117+00:00",
        "meta_object_name": "EUTELSAT 115 WEST B",
        "meta_object_id": "2015-010B",
        "meta_epoch": "2025-12-12T23:12:23.635008",
        "meta_mean_motion": 1.00273842,
        "meta_eccentricity": 7.22e-06,
        "meta_inclination": 0.0199,
        "meta_ra_of_asc_node": 163.8927,
        "meta_arg_of_pericenter": 349.5019,
        "meta_mean_anomaly": 161.7193,
        "meta_ephemeris_type": 0,
        "meta_classification_type": "U",
        "meta_norad_cat_id": 40425,
        "meta_element_set_no": 999,
        "meta_rev_at_epoch": 3952,
        "meta_bstar": 0,
        "meta_mean_motion_dot": -1.3e-07,
        "meta_mean_motion_ddot": 0,
        "tle_line1": "1 40425U 15010B   25346.96694022 -.00000013  00000+0  00000+0 0  9993",
        "tle_line2": "2 40425   0.0199 163.8927 0000072 349.5019 161.7193  1.00273842 39526"
      },
      "geometry": {
        "type": "Point",
        "coordinates": [
          140.96552721394158,
          -1.4977195840435283e-05
        ]
      }
    },
    {
      "type": "Feature",
      "properties": {
        "norad_id": 40875,
        "name": "EUTELSAT 8 WEST B",
        "group": "eutelsat",
        "lat": -0.07571224592997958,
        "lon": -112.15451246413713,
        "alt_km": 35768.817845816055,
        "timestamp": "2025-12-14T11:29:49.728129+00:00",
        "meta_object_name": "EUTELSAT 8 WEST B",
        "meta_object_id": "2015-039B",
        "meta_epoch": "2025-12-13T15:07:26.141088",
        "meta_mean_motion": 1.00271705,
        "meta_eccentricity": 0.00042376,
        "meta_inclination": 0.0661,
        "meta_ra_of_asc_node": 10.0371,
        "meta_arg_of_pericenter": 253.3636,
        "meta_mean_anomaly": 38.0323,
        "meta_ephemeris_type": 0,
        "meta_classification_type": "U",
        "meta_norad_cat_id": 40875,
        "meta_element_set_no": 999,
        "meta_rev_at_epoch": 3779,
        "meta_bstar": 0,
        "meta_mean_motion_dot": -5e-07,
        "meta_mean_motion_ddot": 0,
        "tle_line1": "1 40875U 15039B   25347.63016367 -.00000050  00000+0  00000+0 0  9999",
        "tle_line2": "2 40875   0.0661  10.0371 0004237 253.3636  38.0323  1.00271705 37793"
      },
      "geometry": {
        "type": "Point",
        "coordinates": [
          -112.15451246413713,
          -0.07571224592997958
        ]
      }
    },
    {
      "type": "Feature",
      "properties": {
        "norad_id": 41310,
        "name": "EUTELSAT 9B",
        "group": "eutelsat",
        "lat": -0.03295827381929825,
        "lon": -95.16686505410006,
        "alt_km": 35766.96679943972,
        "timestamp": "2025-12-14T11:29:49.728141+00:00",
        "meta_object_name": "EUTELSAT 9B",
        "meta_object_id": "2016-005A",
        "meta_epoch": "2025-12-13T15:12:18.174816",
        "meta_mean_motion": 1.00270425,
        "meta_eccentricity": 0.00046175,
        "meta_inclination": 0.0471,
        "meta_ra_of_asc_node": 65.8451,
        "meta_arg_of_pericenter": 205.1638,
        "meta_mean_anomaly": 48.628,
        "meta_ephemeris_type": 0,
        "meta_classification_type": "U",
        "meta_norad_cat_id": 41310,
        "meta_element_set_no": 999,
        "meta_rev_at_epoch": 3625,
        "meta_bstar": 0,
        "meta_mean_motion_dot": 7.7e-07,
        "meta_mean_motion_ddot": 0,
        "tle_line1": "1 41310U 16005A   25347.63354369  .00000077  00000+0  00000+0 0  9993",
        "tle_line2": "2 41310   0.0471  65.8451 0004617 205.1638  48.6280  1.00270425 36250"
      },
      "geometry": {
        "type": "Point",
        "coordinates": [
          -95.16686505410006,
          -0.03295827381929825
        ]
      }
    },
    {
      "type": "Feature",
      "properties": {
        "norad_id": 41382,
        "name": "EUTELSAT 65 WEST A",
        "group": "eutelsat",
        "lat": -0.0047680328878328005,
        "lon": -169.3823116912777,
        "alt_km": 35784.39214327399,
        "timestamp": "2025-12-14T11:29:49.728152+00:00",
        "meta_object_name": "EUTELSAT 65 WEST A",
        "meta_object_id": "2016-014A",
        "meta_epoch": "2025-12-13T13:08:22.543296",
        "meta_mean_motion": 1.0027172,
        "meta_eccentricity": 0.00024684,
        "meta_inclination": 0.0529,
        "meta_ra_of_asc_node": 16.4904,
        "meta_arg_of_pericenter": 254.2667,
        "meta_mean_anomaly": 303.6171,
        "meta_ephemeris_type": 0,
        "meta_classification_type": "U",
        "meta_norad_cat_id": 41382,
        "meta_element_set_no": 999,
        "meta_rev_at_epoch": 3567,
        "meta_bstar": 0,
        "meta_mean_motion_dot": -2.61e-06,
        "meta_mean_motion_ddot": 0,
        "tle_line1": "1 41382U 16014A   25347.54748314 -.00000261  00000+0  00000+0 0  9995",
        "tle_line2": "2 41382   0.0529  16.4904 0002468 254.2667 303.6171  1.00271720 35674"
      },
      "geometry": {
        "type": "Point",
        "coordinates": [
          -169.3823116912777,
          -0.0047680328878328005
        ]
      }
    },
    {
      "type": "Feature",
      "properties": {
        "norad_id": 41589,
        "name": "EUTELSAT 117 WEST B",
        "group": "eutelsat",
        "lat": -0.002151657665775108,
        "lon": 138.86986547847056,
        "alt_km": 35785.7230086336,
        "timestamp": "2025-12-14T11:29:49.728164+00:00",
        "meta_object_name": "EUTELSAT 117 WEST B",
        "meta_object_id": "2016-038B",
        "meta_epoch": "2025-12-12T23:11:46.195296",
        "meta_mean_motion": 1.00271866,
        "meta_eccentricity": 2.512e-05,
        "meta_inclination": 0.011,
        "meta_ra_of_asc_node": 153.7448,
        "meta_arg_of_pericenter": 269.9053,
        "meta_mean_anomaly": 249.2194,
        "meta_ephemeris_type": 0,
        "meta_classification_type": "U",
        "meta_norad_cat_id": 41589,
        "meta_element_set_no": 999,
        "meta_rev_at_epoch": 3479,
        "meta_bstar": 0,
        "meta_mean_motion_dot": 1e-08,
        "meta_mean_motion_ddot": 0,
        "tle_line1": "1 41589U 16038B   25346.96650689  .00000001  00000+0  00000+0 0  9993",
        "tle_line2": "2 41589   0.0110 153.7448 0000251 269.9053 249.2194  1.00271866 34790"
      },
      "geometry": {
        "type": "Point",
        "coordinates": [
          138.86986547847056,
          -0.002151657665775108
        ]
      }
    },
    {
      "type": "Feature",
      "properties": {
        "norad_id": 42741,
        "name": "EUTELSAT 172B",
        "group": "eutelsat",
        "lat": -0.015093156203228661,
        "lon": 67.82846394677915,
        "alt_km": 35785.50157566559,
        "timestamp": "2025-12-14T11:29:49.728176+00:00",
        "meta_object_name": "EUTELSAT 172B",
        "meta_object_id": "2017-029B",
        "meta_epoch": "2025-12-13T14:02:28.895424",
        "meta_mean_motion": 1.00270673,
        "meta_eccentricity": 2.679e-05,
        "meta_inclination": 0.0463,
        "meta_ra_of_asc_node": 139.9008,
        "meta_arg_of_pericenter": 247.1462,
        "meta_mean_anomaly": 78.0741,
        "meta_ephemeris_type": 0,
        "meta_classification_type": "U",
        "meta_norad_cat_id": 42741,
        "meta_element_set_no": 999,
        "meta_rev_at_epoch": 3187,
        "meta_bstar": 0,
        "meta_mean_motion_dot": 9e-08,
        "meta_mean_motion_ddot": 0,
        "tle_line1": "1 42741U 17029B   25347.58505666  .00000009  00000+0  00000+0 0  9996",
        "tle_line2": "2 42741   0.0463 139.9008 0000267 247.1462  78.0741  1.00270673 31876"
      },
      "geometry": {
        "type": "Point",
        "coordinates": [
          67.82846394677915,
          -0.015093156203228661
        ]
      }
    }
  ]
}